NORAD_CAT_ID,OBJECT_NAME,OBJECT_TYPE,EPOCH,MEAN_MOTION,ECCENTRICITY,INCLINATION,RA_OF_ASC_NODE,ARG_OF_PERICENTER,MEAN_ANOMALY,BSTAR,MEAN_MOTION_DOT,MEAN_MOTION_DDOT,TLE_LINE0,TLE_LINE1,TLE_LINE2,SEMIMAJOR_AXIS,PERIOD,APOGEE,PERIGEE,DECAYED
52378.0,STARLINK-3806,PAYLOAD,2023-02-13 02:06:56,15.08855401,6.54e-05,53.2139,179.6988,101.8171,258.2895,0.0010712,0.00016809,0.0,0 STARLINK-3806,1 52378U 22045AZ  23044.08815200  .00016809  00000-0  10712-2 0  9992,2 52378  53.2139 179.6988 0000654 101.8171 258.2895 15.08855401 46750,6917.833,95.437,540.151,539.246,0.0
52378.0,STARLINK-3806,PAYLOAD,2023-02-13 14:50:01,15.08865998,0.000202,53.2134,177.3195,84.7839,275.3384,0.0018662,0.00029559,0.0,0 STARLINK-3806,1 52378U 22045AZ  23044.61807367  .00029559  00000-0  18662-2 0  9994,2 52378  53.2134 177.3195 0002020  84.7839 275.3384 15.08865998 46833,6917.801,95.436,541.063,538.269,0.0
52378.0,STARLINK-3806,PAYLOAD,2023-02-13 16:25:24,15.08854233,0.0001442,53.2142,177.023,82.3666,277.749,0.0012941,0.00020376,0.0,0 STARLINK-3806,1 52378U 22045AZ  23044.68431396  .00020376  00000-0  12941-2 0  9998,2 52378  53.2142 177.0230 0001442  82.3666 277.7490 15.08854233 46843,6917.837,95.437,540.699,538.704,0.0
52378.0,STARLINK-3806,PAYLOAD,2023-02-14 01:57:43,15.08830832,0.000151,53.2134,175.2389,89.8714,270.2451,-0.00042251,-7.004e-05,0.0,0 STARLINK-3806,1 52378U 22045AZ  23045.08175538 -.00007004  00000-0 -42251-3 0  9999,2 52378  53.2134 175.2389 0001510  89.8714 270.2451 15.08830832 46902,6917.908,95.438,540.818,538.729,0.0
52378.0,STARLINK-3806,PAYLOAD,2023-02-14 14:40:48,15.08863031,0.0001577,53.2135,172.8593,90.5485,269.5688,0.0026763,0.0004259,0.0,0 STARLINK-3806,1 52378U 22045AZ  23045.61167537  .00042590  00000-0  26763-2 0  9994,2 52378  53.2135 172.8593 0001577  90.5485 269.5688 15.08863031 46988,6917.81,95.436,540.766,538.584,0.0
52378.0,STARLINK-3806,PAYLOAD,2023-02-14 16:16:11,15.08862928,0.0001178,53.2135,172.5617,93.6674,266.4453,0.0025628,0.00040761,0.0,0 STARLINK-3806,1 52378U 22045AZ  23045.67791515  .00040761  00000-0  25628-2 0  9996,2 52378  53.2135 172.5617 0001178  93.6674 266.4453 15.08862928 46994,6917.81,95.436,540.49,538.86,0.0
52378.0,STARLINK-3806,PAYLOAD,2023-02-15 01:48:31,15.08855579,0.0001883,53.2139,170.777,80.4703,279.6501,0.0023,0.00036523,0.0,0 STARLINK-3806,1 52378U 22045AZ  23046.07535962  .00036523  00000-0  23000-2 0  9996,2 52378  53.2139 170.7770 0001883  80.4703 279.6501 15.08855579 47050,6917.833,95.437,541.0,538.395,0.0
52378.0,STARLINK-3806,PAYLOAD,2023-02-15 14:31:35,15.08878032,0.0001679,53.2138,168.3986,85.6864,274.432,0.0024334,0.00038693,0.0,0 STARLINK-3806,1 52378U 22045AZ  23046.60527381  .00038693  00000-0  24334-2 0  9992,2 52378  53.2138 168.3986 0001679  85.6864 274.4320 15.08878032 47139,6917.764,95.435,540.791,538.468,0.0
52378.0,STARLINK-3806,PAYLOAD,2023-02-15 19:17:44,15.08893694,0.0001546,53.2144,167.5067,80.0811,280.0356,0.0028336,0.00045165,0.0,0 STARLINK-3806,1 52378U 22045AZ  23046.80398791  .00045165  00000-0  28336-2 0  9993,2 52378  53.2144 167.5067 0001546  80.0811 280.0356 15.08893694 47167,6917.716,95.434,540.651,538.512,0.0
52378.0,STARLINK-3806,PAYLOAD,2023-02-16 08:00:49,15.08862075,6.36e-05,53.2143,165.1283,90.8076,269.2989,0.0040558,0.00064894,0.0,0 STARLINK-3806,1 52378U 22045AZ  23047.33390649  .00064894  00000-0  40558-2 0  9996,2 52378  53.2143 165.1283 0000636  90.8076 269.2989 15.08862075 47240,6917.813,95.436,540.118,539.238,0.0
52378.0,STARLINK-3806,PAYLOAD,2023-02-16 12:46:58,15.08872529,0.0001067,53.2142,164.2355,92.8669,267.2445,0.0019616,0.00031097,0.0,0 STARLINK-3806,1 52378U 22045AZ  23047.53262306  .00031097  00000-0  19616-2 0  9996,2 52378  53.2142 164.2355 0001067  92.8669 267.2445 15.08872529 47271,6917.781,95.435,540.384,538.908,0.0
52378.0,STARLINK-3806,PAYLOAD,2023-02-16 19:08:30,15.08905799,0.0001115,53.2143,163.0454,95.1358,264.9762,0.0033144,0.00052953,0.0,0 STARLINK-3806,1 52378U 22045AZ  23047.79757379  .00052953  00000-0  33144-2 0  9999,2 52378  53.2143 163.0454 0001115  95.1358 264.9762 15.08905799 47311,6917.679,95.433,540.316,538.773,0.0
52378.0,STARLINK-3806,PAYLOAD,2023-02-17 06:16:13,15.08817704,0.0001058,53.2148,160.964,142.7702,217.3364,-0.00015542,-2.759e-05,0.0,0 STARLINK-3806,1 52378U 22045AZ  23048.26126436 -.00002759  00000-0 -15542-3 0  9990,2 52378  53.2148 160.9640 0001058 142.7702 217.3364 15.08817704 47382,6917.949,95.439,540.545,539.082,0.0
52378.0,STARLINK-3806,PAYLOAD,2023-02-17 14:13:09,15.0882994,9.95e-05,53.2149,159.4776,122.2229,237.8859,0.0026315,0.00041829,0.0,0 STARLINK-3806,1 52378U 22045AZ  23048.59247340  .00041829  00000-0  26315-2 0  9992,2 52378  53.2149 159.4776 0000995 122.2229 237.8859 15.08829940 47439,6917.911,95.438,540.464,539.088,0.0
52378.0,STARLINK-3806,PAYLOAD,2023-02-17 15:48:32,15.08834265,0.0001013,53.2148,159.1804,121.9098,238.1993,0.0025365,0.00040305,0.0,0 STARLINK-3806,1 52378U 22045AZ  23048.65871390  .00040305  00000-0  25365-2 0  9999,2 52378  53.2148 159.1804 0001013 121.9098 238.1993 15.08834265 47449,6917.898,95.438,540.464,539.062,0.0
52378.0,STARLINK-3806,PAYLOAD,2023-02-17 18:59:19,15.08842516,9.98e-05,53.215,158.5852,121.0972,239.0118,0.0019811,0.00031384,0.0,0 STARLINK-3806,1 52378U 22045AZ  23048.79119404  .00031384  00000-0  19811-2 0  9991,2 52378  53.2150 158.5852 0000998 121.0972 239.0118 15.08842516 47460,6917.873,95.437,540.428,539.047,0.0
52378.0,STARLINK-3806,PAYLOAD,2023-02-18 10:53:11,15.08837488,0.0001099,53.2152,155.6117,117.5997,242.5107,0.001546,0.000244,0.0,0 STARLINK-3806,1 52378U 22045AZ  23049.45360349  .00024400  00000-0  15460-2 0  9998,2 52378  53.2152 155.6117 0001099 117.5997 242.5107 15.08837488 47564,6917.888,95.438,540.513,538.993,0.0
52378.0,STARLINK-3806,PAYLOAD,2023-02-18 14:03:57,15.0884733,9.12e-05,53.2153,155.018,108.9457,251.1634,0.0020323,0.00032211,0.0,0 STARLINK-3806,1 52378U 22045AZ  23049.58608369  .00032211  00000-0  20323-2 0  9992,2 52378  53.2153 155.0180 0000912 108.9457 251.1634 15.08847330 47587,6917.858,95.437,540.354,539.092,0.0
52378.0,STARLINK-3806,PAYLOAD,2023-02-18 23:36:16,15.08845115,0.0001045,53.2153,153.234,93.5749,266.5363,0.0010828,0.00016989,0.0,0 STARLINK-3806,1 52378U 22045AZ  23049.98352456  .00016989  00000-0  10828-2 0  9992,2 52378  53.2153 153.2340 0001045  93.5749 266.5363 15.08845115 47641,6917.865,95.437,540.453,539.007,0.0
52378.0,STARLINK-3806,PAYLOAD,2023-02-19 13:54:44,15.08861816,8.53e-05,53.2152,150.5591,93.1601,266.9489,0.0015751,0.00024884,0.0,0 STARLINK-3806,1 52378U 22045AZ  23050.57968006  .00024884  00000-0  15751-2 0  9996,2 52378  53.2152 150.5591 0000853  93.1601 266.9489 15.08861816 47736,6917.814,95.436,540.269,539.089,0.0
52378.0,STARLINK-3806,PAYLOAD,2023-02-19 23:27:03,15.08848514,6.27e-05,53.2149,148.7733,104.2677,255.8385,0.00053001,8.159e-05,0.0,0 STARLINK-3806,1 52378U 22045AZ  23050.97711945  .00008159  00000-0  53001-3 0  9996,2 52378  53.2149 148.7733 0000627 104.2677 255.8385 15.08848514 47793,6917.854,95.437,540.153,539.286,0.0
52378.0,STARLINK-3806,PAYLOAD,2023-02-20 07:23:59,15.08840368,0.0001021,53.2146,147.2866,96.2369,263.874,0.0009115,0.00014248,0.0,0 STARLINK-3806,1 52378U 22045AZ  23051.30832402  .00014248  00000-0  91150-3 0  9999,2 52378  53.2146 147.2866 0001021  96.2369 263.8740 15.08840368 47847,6917.879,95.438,540.451,539.038,0.0
52378.0,STARLINK-3806,PAYLOAD,2023-02-20 13:45:31,15.08841276,0.0001121,53.2146,146.0971,92.8331,267.2789,0.0013214,0.00020805,0.0,0 STARLINK-3806,1 52378U 22045AZ  23051.57328490  .00020805  00000-0  13214-2 0  9995,2 52378  53.2146 146.0971 0001121  92.8331 267.2789 15.08841276 47887,6917.876,95.437,540.517,538.966,0.0
52378.0,STARLINK-3806,PAYLOAD,2023-02-21 05:39:23,15.08840893,0.0001004,53.2144,143.1243,78.5639,281.5465,0.0011063,0.00017363,0.0,0 STARLINK-3806,1 52378U 22045AZ  23052.23568841  .00017363  00000-0  11063-2 0  9990,2 52378  53.2144 143.1243 0001004  78.5639 281.5465 15.08840893 47982,6917.878,95.437,540.437,539.048,0.0
52378.0,STARLINK-3806,PAYLOAD,2023-02-21 13:36:18,15.08866074,0.000109,53.2141,141.6367,84.1139,275.9977,0.0024033,0.00038195,0.0,0 STARLINK-3806,1 52378U 22045AZ  23052.56688485  .00038195  00000-0  24033-2 0  9990,2 52378  53.2141 141.6367 0001090  84.1139 275.9977 15.08866074 48033,6917.801,95.436,540.42,538.912,0.0
52378.0,STARLINK-3806,PAYLOAD,2023-02-21 18:22:27,15.0888263,0.0001125,53.214,140.7446,81.1554,278.9566,0.0026175,0.00041665,0.0,0 STARLINK-3806,1 52378U 22045AZ  23052.76560040  .00041665  00000-0  26175-2 0  9993,2 52378  53.2140 140.7446 0001125  81.1554 278.9566 15.08882630 48063,6917.75,95.435,540.393,538.837,0.0
52378.0,STARLINK-3806,PAYLOAD,2023-02-21 23:08:37,15.08851745,4.77e-05,53.2142,139.8525,116.9269,243.1772,0.00032392,4.873e-05,0.0,0 STARLINK-3806,1 52378U 22045AZ  23052.96431878  .00004873  00000-0  32392-3 0  9990,2 52378  53.2142 139.8525 0000477 116.9269 243.1772 15.08851745 48090,6917.844,95.437,540.039,539.38,0.0
52378.0,STARLINK-3806,PAYLOAD,2023-02-22 13:27:05,15.08864992,0.0001138,53.2142,137.1757,94.5448,265.5674,0.0018666,0.00029564,0.0,0 STARLINK-3806,1 52378U 22045AZ  23053.56047808  .00029564  00000-0  18666-2 0  9994,2 52378  53.2142 137.1757 0001138  94.5448 265.5674 15.08864992 48180,6917.804,95.436,540.456,538.882,0.0
52378.0,STARLINK-3806,PAYLOAD,2023-02-22 16:37:51,15.08871621,0.0001225,53.2142,136.5808,98.9407,261.1724,0.001583,0.00025017,0.0,0 STARLINK-3806,1 52378U 22045AZ  23053.69295533  .00025017  00000-0  15830-2 0  9997,2 52378  53.2142 136.5808 0001225  98.9407 261.1724 15.08871621 48208,6917.784,95.436,540.496,538.801,0.0
52378.0,STARLINK-3806,PAYLOAD,2023-02-23 06:56:19,15.08845061,0.0001303,53.2138,133.904,119.6779,240.4343,0.00083843,0.00013083,0.0,0 STARLINK-3806,1 52378U 22045AZ  23054.28911950  .00013083  00000-0  83843-3 0  9991,2 52378  53.2138 133.9040 0001303 119.6779 240.4343 15.08845061 48297,6917.865,95.437,540.631,538.829,0.0
